H1 CPF 01  gfz 2022 10 17 12  7902 tandemx   
H2 1003001  6202 36605    2022 10 17 12 59 42 2022 10 22 00 00 42   120 1 1  0 0 0
H9
10 0 59870  59742.000000  0   -2309082.632  -1783866.261   6229250.738
10 0 59870  59862.000000  0   -3098333.241  -2001094.522   5807390.321
10 0 59870  59982.000000  0   -3836854.385  -2170006.321   5283388.721
10 0 59870  60102.000000  0   -4510860.427  -2288645.656   4666427.626
10 0 59870  60222.000000  0   -5107660.978  -2356165.836   3967332.669
10 0 59870  60342.000000  0   -5615906.778  -2372825.082   3198386.309
10 0 59870  60462.000000  0   -6025813.442  -2339958.722   2373114.043
10 0 59870  60582.000000  0   -6329359.152  -2259929.559   1506046.028
10 0 59870  60702.000000  0   -6520450.278  -2136055.855    612455.192
10 0 59870  60822.000000  0   -6595047.072  -1972517.866   -291919.461
10 0 59870  60942.000000  0   -6551250.148  -1774246.189  -1191158.948
10 0 59870  61062.000000  0   -6389342.208  -1546794.789  -2069454.055
10 0 59870  61182.000000  0   -6111785.559  -1296202.467  -2911390.670
10 0 59870  61302.000000  0   -5723176.332  -1028846.367  -3702225.096
10 0 59870  61422.000000  0   -5230157.415   -751290.875  -4428144.001
10 0 59870  61542.000000  0   -4641292.651   -470135.564  -5076503.825
10 0 59870  61662.000000  0   -3966905.627   -191866.514  -5636045.395
10 0 59870  61782.000000  0   -3218887.518     77285.741  -6097080.312
10 0 59870  61902.000000  0   -2410479.900    331478.868  -6451646.541
10 0 59870  62022.000000  0   -1556037.386    565378.730  -6693634.158
10 0 59870  62142.000000  0    -670772.954    774265.258  -6818880.108
10 0 59870  62262.000000  0     229508.470    954123.869  -6825230.853
10 0 59870  62382.000000  0    1128684.106   1101719.299  -6712575.320
10 0 59870  62502.000000  0    2010595.466   1214652.181  -6482849.381
10 0 59870  62622.000000  0    2859333.161   1291398.018  -6140006.188
10 0 59870  62742.000000  0    3659519.616   1331326.854  -5689954.473
10 0 59870  62862.000000  0    4396584.488   1334703.505  -5140466.412
10 0 59870  62982.000000  0    5057031.854   1302668.873  -4501055.810
10 0 59870  63102.000000  0    5628693.315   1237202.335  -3782823.947
10 0 59870  63222.000000  0    6100960.447   1141065.272  -2998275.976
10 0 59870  63342.000000  0    6464992.746   1017726.751  -2161110.400
10 0 59870  63462.000000  0    6713896.312    871273.157  -1285982.707
10 0 59870  63582.000000  0    6842866.339    706302.819   -388246.964
10 0 59870  63702.000000  0    6849288.841    527808.584    516318.422
10 0 59870  63822.000000  0    6732800.050    341051.897   1411794.361
10 0 59870  63942.000000  0    6495301.794    151429.550   2282410.116
10 0 59870  64062.000000  0    6140929.313    -35661.669   3112830.782
10 0 59870  64182.000000  0    5675974.196   -214960.089   3888434.991
10 0 59870  64302.000000  0    5108764.154   -381468.921   4595576.822
10 0 59870  64422.000000  0    4449505.710   -530578.783   5221828.963
10 0 59870  64542.000000  0    3710088.876   -658180.313   5756200.880
10 0 59870  64662.000000  0    2903863.201   -760762.500   6189327.381
10 0 59870  64782.000000  0    2045389.469   -835496.410   6513627.542
10 0 59870  64902.000000  0    1150172.226   -880302.339   6723432.161
10 0 59870  65022.000000  0     234375.649   -893899.325   6815077.838
10 0 59870  65142.000000  0    -685469.549   -875835.590   6786965.645
10 0 59870  65262.000000  0   -1592763.543   -826500.276   6639586.360
10 0 59870  65382.000000  0   -2471135.517   -747115.338   6375512.022
10 0 59870  65502.000000  0   -3304737.668   -639708.160   5999354.393
10 0 59870  65622.000000  0   -4078532.815   -507065.196   5517690.813
10 0 59870  65742.000000  0   -4778570.696   -352668.027   4938955.822
10 0 59870  65862.000000  0   -5392246.647   -180612.296   4273298.608
10 0 59870  65982.000000  0   -5908537.091      4488.712   3532408.694
10 0 59870  66102.000000  0   -6318206.465    197614.138   2729312.932
10 0 59870  66222.000000  0   -6613982.939    393457.193   1878146.680
10 0 59870  66342.000000  0   -6790696.946    586555.145    993901.252
10 0 59870  66462.000000  0   -6845378.648    771424.006     92153.172
10 0 59870  66582.000000  0   -6777310.902    942695.267   -811219.197
10 0 59870  66702.000000  0   -6588035.577   1095250.717  -1700324.545
10 0 59870  66822.000000  0   -6281315.108   1224351.486  -2559545.105
10 0 59870  66942.000000  0   -5863052.004   1325759.807  -3373818.243
10 0 59870  67062.000000  0   -5341162.854   1395848.314  -4128905.416
10 0 59870  67182.000000  0   -4725415.238   1431694.765  -4811640.000
10 0 59870  67302.000000  0   -4027232.402   1431160.693  -5410152.082
10 0 59870  67422.000000  0   -3259470.923   1392952.222  -5914066.027
10 0 59870  67542.000000  0   -2436177.216   1316661.710  -6314669.979
10 0 59870  67662.000000  0   -1572326.891   1202790.251  -6605055.371
10 0 59870  67782.000000  0    -683551.708   1052751.238  -6780224.067
10 0 59870  67902.000000  0     214138.814    868853.998  -6837163.921
10 0 59870  68022.000000  0    1104637.665    654269.254  -6774895.243
10 0 59870  68142.000000  0    1972023.078    412975.486  -6594488.191
10 0 59870  68262.000000  0    2800837.254    149687.198  -6299045.724
10 0 59870  68382.000000  0    3576357.210   -130233.206  -5893656.212
10 0 59870  68502.000000  0    4284853.543   -420880.084  -5385313.667
10 0 59870  68622.000000  0    4913833.872   -715923.083  -4782809.057
10 0 59870  68742.000000  0    5452269.435  -1008738.751  -4096590.205
10 0 59870  68862.000000  0    5890797.040  -1292552.217  -3338590.345
10 0 59870  68982.000000  0    6221892.806  -1560586.516  -2522028.373
10 0 59870  69102.000000  0    6440013.586  -1806216.480  -1661182.815
10 0 59870  69222.000000  0    6541701.535  -2023123.267   -771142.585
10 0 59870  69342.000000  0    6525648.658  -2205445.361    132460.261
10 0 59870  69462.000000  0    6392719.350  -2347922.930   1033731.196
10 0 59870  69582.000000  0    6145928.897  -2446030.638   1916801.430
10 0 59870  69702.000000  0    5790377.956  -2496096.404   2766116.553
10 0 59870  69822.000000  0    5333145.287  -2495402.189   3566719.210
10 0 59870  69942.000000  0    4783140.053  -2442264.043   4304518.784
10 0 59870  70062.000000  0    4150921.129  -2336089.846   4966541.620
10 0 59870  70182.000000  0    3448487.273  -2177414.686   5541161.173
10 0 59870  70302.000000  0    2689039.584  -1967911.810   6018300.621
10 0 59870  70422.000000  0    1886726.376  -1710378.975   6389604.301
10 0 59870  70542.000000  0    1056374.724  -1408702.040   6648578.322
10 0 59870  70662.000000  0     213213.146  -1067795.705   6790698.398
10 0 59870  70782.000000  0    -627408.734   -693522.196   6813483.350
10 0 59870  70902.000000  0   -1450298.617   -292590.161   6716534.889
10 0 59870  71022.000000  0   -2240694.836    127565.284   6501544.131
10 0 59870  71142.000000  0   -2984530.265    558919.810   6172264.377
10 0 59870  71262.000000  0   -3668683.542    993011.975   5734450.359
10 0 59870  71382.000000  0   -4281214.181   1421107.701   5195764.086
10 0 59870  71502.000000  0   -4811577.069   1834374.773   4565646.724
10 0 59870  71622.000000  0   -5250811.501   2224064.616   3855157.778
10 0 59870  71742.000000  0   -5591700.365   2581696.677   3076783.661
10 0 59870  71862.000000  0   -5828896.245   2899241.605   2244219.336
10 0 59870  71982.000000  0   -5959012.500   3169299.310   1372125.783
10 0 59870  72102.000000  0   -5980675.811   3385267.783    475865.939
10 0 59870  72222.000000  0   -5894536.410   3541496.797   -428774.008
10 0 59870  72342.000000  0   -5703237.994   3633423.046  -1325871.104
10 0 59870  72462.000000  0   -5411348.357   3657684.213  -2199655.150
10 0 59870  72582.000000  0   -5025249.340   3612207.475  -3034794.767
10 0 59870  72702.000000  0   -4552991.872   3496271.021  -3816671.290
10 0 59870  72822.000000  0   -4004119.688   3310537.237  -4531635.457
10 0 59870  72942.000000  0   -3389468.468   3057057.936  -5167242.244
10 0 59870  73062.000000  0   -2720944.839   2739251.816  -5712459.636
10 0 59870  73182.000000  0   -2011292.155   2361856.263  -6157850.823
10 0 59870  73302.000000  0   -1273844.366   1930853.166  -6495727.097
10 0 59870  73422.000000  0    -522276.133   1453371.359  -6720267.970
10 0 59870  73542.000000  0     229646.882    937568.144  -6827611.145
10 0 59870  73662.000000  0     968313.519    392491.834  -6815911.658
10 0 59870  73782.000000  0    1680508.445   -172073.693  -6685371.762
10 0 59870  73902.000000  0    2353643.243   -745780.707  -6438236.378
10 0 59870  74022.000000  0    2975974.059  -1317902.092  -6078759.124
10 0 59870  74142.000000  0    3536804.269  -1877526.628  -5613136.455
10 0 59870  74262.000000  0    4026669.168  -2413762.765  -5049412.653
10 0 59870  74382.000000  0    4437500.317  -2915949.625  -4397351.803
10 0 59870  74502.000000  0    4762763.518  -3373868.800  -3668278.798
10 0 59870  74622.000000  0    4997570.083  -3777952.875  -2874892.252
10 0 59870  74742.000000  0    5138758.831  -4119487.524  -2031049.526
10 0 59870  74862.000000  0    5184944.625  -4390801.098  -1151526.807
10 0 59870  74982.000000  0    5136532.501  -4585437.832   -251758.925
10 0 59870  75102.000000  0    4995695.199  -4698309.886    652436.683
10 0 59870  75222.000000  0    4766314.501  -4725822.696   1545146.169
10 0 59870  75342.000000  0    4453887.396  -4665970.079   2410648.471
10 0 59870  75462.000000  0    4065400.214  -4518397.288   3233700.364
10 0 59870  75582.000000  0    3609173.975  -4284430.687   3999812.119
10 0 59870  75702.000000  0    3094683.784  -3967073.038   4695507.782
10 0 59870  75822.000000  0    2532358.228  -3570963.914   5308564.044
10 0 59870  75942.000000  0    1933364.281  -3102308.315   5828224.035
10 0 59870  76062.000000  0    1309381.248  -2568773.770   6245383.007
10 0 59870  76182.000000  0     672370.152  -1979359.757   6552741.669
99
